KUIPER-00122            
1 65951U 25228E   26065.55159995 -.00007844  00000+0 -10058-2 0  9992
2 65951  51.9031  16.9375 0000893  53.2003 306.9041 14.79737341 22734
KUIPER-00123            
1 65952U 25228F   26065.24871664  .00005738  00000+0  78018-3 0  9992
2 65952  51.8996  18.3093 0000958  97.4334 262.6737 14.79979895 22682
KUIPER-00124            
1 65953U 25228G   26065.25669493 -.00000139  00000+0  10710-4 0  9996
2 65953  51.9017  10.7626 0000324  92.1817 267.9183 14.79929038 22790
KUIPER-00125            
1 65954U 25228H   26065.20533038  .00006663  00000+0  90156-3 0  9995
2 65954  51.9031 356.0104 0000957 116.9149 243.1911 14.79960239 22994
KUIPER-00126            
1 65955U 25228J   26065.15001176  .00000778  00000+0  13108-3 0  9996
2 65955  51.9010  16.2555 0000732  86.7419 273.3627 14.79925195 22702
KUIPER-00127            
1 65956U 25228K   26065.23532228  .00004094  00000+0  61443-3 0  9993
2 65956  51.9014   7.2183 0001289 181.6532 178.4424 14.76369006 22848
KUIPER-00128            
1 65957U 25228L   26065.05667870  .00006236  00000+0  84736-3 0  9996
2 65957  51.9024   9.1820 0000783 100.5766 259.5285 14.79876914 22790
KUIPER-00129            
1 65958U 25228M   26065.23100205 -.00001962  00000+0 -22836-3 0  9997
2 65958  51.9050   3.3953 0000501 236.4453 123.6462 14.79940989 22896
KUIPER-00130            
1 65959U 25228N   26065.53230534  .00007174  00000+0  96675-3 0  9991
2 65959  51.9043   4.5718 0001265  95.6812 264.4295 14.80032853 13198
KUIPER-00134            
1 65960U 25228P   26065.14379519  .00035768  00000+0  93326-3 0  9997
2 65960  51.8774 337.5575 0004826 311.8796  48.1779 15.38470319 23248
KUIPER-00135            
1 65961U 25228Q   26065.56597324  .00007034  00000+0  95024-3 0  9992
2 65961  51.9036   4.4841 0001027  89.4683 270.6397 14.79952227 22907
KUIPER-00136            
1 65962U 25228R   26065.19719391  .00007048  00000+0  95341-3 0  9999
2 65962  51.9021   3.5872 0001418 102.0377 258.0744 14.79893917 22885
KUIPER-00137            
1 65963U 25228S   26065.58334491 -.00011479  00000+0 -14328-2 0  9997
2 65963  51.9032 359.3067 0000893 112.8316 149.6132 14.81259652  5684
KUIPER-00138            
1 65964U 25228T   26065.10131025  .00003076  00000+0  43250-3 0  9993
2 65964  51.9015 358.9610 0000873  94.4149 265.6913 14.79919123 22949
KUIPER-00140            
1 65965U 25228U   26065.50382795  .00002480  00000+0  35432-3 0  9991
2 65965  51.9023 359.7613 0000413 141.5674 218.5318 14.79919952 22966
KUIPER-00141            
1 65966U 25228V   26065.50918212 -.00022546  00000+0 -29300-2 0  9994
2 65966  51.9052 354.7498 0000157 327.0116  33.0836 14.80053388 23030
