[{"OBJECT_NAME":"KUIPER-00122","OBJECT_ID":"2025-228E","EPOCH":"2026-03-06T13:14:18.235680","MEAN_MOTION":14.79737341,"ECCENTRICITY":8.936e-5,"INCLINATION":51.9031,"RA_OF_ASC_NODE":16.9375,"ARG_OF_PERICENTER":53.2003,"MEAN_ANOMALY":306.9041,"EPHEMERIS_TYPE":0,"CLASSIFICATION_TYPE":"U","NORAD_CAT_ID":65951,"ELEMENT_SET_NO":999,"REV_AT_EPOCH":2273,"BSTAR":-0.0010058289,"MEAN_MOTION_DOT":-7.844e-5,"MEAN_MOTION_DDOT":0},{"OBJECT_NAME":"KUIPER-00123","OBJECT_ID":"2025-228F","EPOCH":"2026-03-06T05:58:09.117696","MEAN_MOTION":14.79979895,"ECCENTRICITY":9.582e-5,"INCLINATION":51.8996,"RA_OF_ASC_NODE":18.3093,"ARG_OF_PERICENTER":97.4334,"MEAN_ANOMALY":262.6737,"EPHEMERIS_TYPE":0,"CLASSIFICATION_TYPE":"U","NORAD_CAT_ID":65952,"ELEMENT_SET_NO":999,"REV_AT_EPOCH":2268,"BSTAR":0.00078018009,"MEAN_MOTION_DOT":5.738e-5,"MEAN_MOTION_DDOT":0},{"OBJECT_NAME":"KUIPER-00124","OBJECT_ID":"2025-228G","EPOCH":"2026-03-06T06:09:38.441952","MEAN_MOTION":14.79929038,"ECCENTRICITY":3.245e-5,"INCLINATION":51.9017,"RA_OF_ASC_NODE":10.7626,"ARG_OF_PERICENTER":92.1817,"MEAN_ANOMALY":267.9183,"EPHEMERIS_TYPE":0,"CLASSIFICATION_TYPE":"U","NORAD_CAT_ID":65953,"ELEMENT_SET_NO":999,"REV_AT_EPOCH":2279,"BSTAR":1.0710171e-5,"MEAN_MOTION_DOT":-1.39e-6,"MEAN_MOTION_DDOT":0},{"OBJECT_NAME":"KUIPER-00125","OBJECT_ID":"2025-228H","EPOCH":"2026-03-06T04:55:40.544832","MEAN_MOTION":14.79960239,"ECCENTRICITY":9.571e-5,"INCLINATION":51.9031,"RA_OF_ASC_NODE":356.0104,"ARG_OF_PERICENTER":116.9149,"MEAN_ANOMALY":243.1911,"EPHEMERIS_TYPE":0,"CLASSIFICATION_TYPE":"U","NORAD_CAT_ID":65954,"ELEMENT_SET_NO":999,"REV_AT_EPOCH":2299,"BSTAR":0.00090155553,"MEAN_MOTION_DOT":6.663e-5,"MEAN_MOTION_DDOT":0},{"OBJECT_NAME":"KUIPER-00126","OBJECT_ID":"2025-228J","EPOCH":"2026-03-06T03:36:01.016064","MEAN_MOTION":14.79925195,"ECCENTRICITY":7.324e-5,"INCLINATION":51.901,"RA_OF_ASC_NODE":16.2555,"ARG_OF_PERICENTER":86.7419,"MEAN_ANOMALY":273.3627,"EPHEMERIS_TYPE":0,"CLASSIFICATION_TYPE":"U","NORAD_CAT_ID":65955,"ELEMENT_SET_NO":999,"REV_AT_EPOCH":2270,"BSTAR":0.00013108469,"MEAN_MOTION_DOT":7.78e-6,"MEAN_MOTION_DDOT":0},{"OBJECT_NAME":"KUIPER-00127","OBJECT_ID":"2025-228K","EPOCH":"2026-03-06T05:38:51.844992","MEAN_MOTION":14.76369006,"ECCENTRICITY":0.00012898,"INCLINATION":51.9014,"RA_OF_ASC_NODE":7.2183,"ARG_OF_PERICENTER":181.6532,"MEAN_ANOMALY":178.4424,"EPHEMERIS_TYPE":0,"CLASSIFICATION_TYPE":"U","NORAD_CAT_ID":65956,"ELEMENT_SET_NO":999,"REV_AT_EPOCH":2284,"BSTAR":0.00061442635,"MEAN_MOTION_DOT":4.094e-5,"MEAN_MOTION_DDOT":0},{"OBJECT_NAME":"KUIPER-00128","OBJECT_ID":"2025-228L","EPOCH":"2026-03-06T01:21:37.039680","MEAN_MOTION":14.79876914,"ECCENTRICITY":7.834e-5,"INCLINATION":51.9024,"RA_OF_ASC_NODE":9.182,"ARG_OF_PERICENTER":100.5766,"MEAN_ANOMALY":259.5285,"EPHEMERIS_TYPE":0,"CLASSIFICATION_TYPE":"U","NORAD_CAT_ID":65957,"ELEMENT_SET_NO":999,"REV_AT_EPOCH":2279,"BSTAR":0.00084735843,"MEAN_MOTION_DOT":6.236e-5,"MEAN_MOTION_DDOT":0},{"OBJECT_NAME":"KUIPER-00129","OBJECT_ID":"2025-228M","EPOCH":"2026-03-06T05:32:38.577120","MEAN_MOTION":14.79940989,"ECCENTRICITY":5.017e-5,"INCLINATION":51.905,"RA_OF_ASC_NODE":3.3953,"ARG_OF_PERICENTER":236.4453,"MEAN_ANOMALY":123.6462,"EPHEMERIS_TYPE":0,"CLASSIFICATION_TYPE":"U","NORAD_CAT_ID":65958,"ELEMENT_SET_NO":999,"REV_AT_EPOCH":2289,"BSTAR":-0.00022836106,"MEAN_MOTION_DOT":-1.962e-5,"MEAN_MOTION_DDOT":0},{"OBJECT_NAME":"KUIPER-00130","OBJECT_ID":"2025-228N","EPOCH":"2026-03-06T12:46:31.181376","MEAN_MOTION":14.80032853,"ECCENTRICITY":0.00012651,"INCLINATION":51.9043,"RA_OF_ASC_NODE":4.5718,"ARG_OF_PERICENTER":95.6812,"MEAN_ANOMALY":264.4295,"EPHEMERIS_TYPE":0,"CLASSIFICATION_TYPE":"U","NORAD_CAT_ID":65959,"ELEMENT_SET_NO":999,"REV_AT_EPOCH":1319,"BSTAR":0.00096674865,"MEAN_MOTION_DOT":7.174e-5,"MEAN_MOTION_DDOT":0},{"OBJECT_NAME":"KUIPER-00134","OBJECT_ID":"2025-228P","EPOCH":"2026-03-06T03:27:03.904416","MEAN_MOTION":15.38470319,"ECCENTRICITY":0.00048264,"INCLINATION":51.8774,"RA_OF_ASC_NODE":337.5575,"ARG_OF_PERICENTER":311.8796,"MEAN_ANOMALY":48.1779,"EPHEMERIS_TYPE":0,"CLASSIFICATION_TYPE":"U","NORAD_CAT_ID":65960,"ELEMENT_SET_NO":999,"REV_AT_EPOCH":2324,"BSTAR":0.00093326399,"MEAN_MOTION_DOT":0.00035768,"MEAN_MOTION_DDOT":0},{"OBJECT_NAME":"KUIPER-00135","OBJECT_ID":"2025-228Q","EPOCH":"2026-03-06T13:35:00.087936","MEAN_MOTION":14.79952227,"ECCENTRICITY":0.00010272,"INCLINATION":51.9036,"RA_OF_ASC_NODE":4.4841,"ARG_OF_PERICENTER":89.4683,"MEAN_ANOMALY":270.6397,"EPHEMERIS_TYPE":0,"CLASSIFICATION_TYPE":"U","NORAD_CAT_ID":65961,"ELEMENT_SET_NO":999,"REV_AT_EPOCH":2290,"BSTAR":0.00095024411,"MEAN_MOTION_DOT":7.034e-5,"MEAN_MOTION_DDOT":0},{"OBJECT_NAME":"KUIPER-00136","OBJECT_ID":"2025-228R","EPOCH":"2026-03-06T04:43:57.553824","MEAN_MOTION":14.79893917,"ECCENTRICITY":0.00014189,"INCLINATION":51.9021,"RA_OF_ASC_NODE":3.5872,"ARG_OF_PERICENTER":102.0377,"MEAN_ANOMALY":258.0744,"EPHEMERIS_TYPE":0,"CLASSIFICATION_TYPE":"U","NORAD_CAT_ID":65962,"ELEMENT_SET_NO":999,"REV_AT_EPOCH":2288,"BSTAR":0.00095341012,"MEAN_MOTION_DOT":7.048e-5,"MEAN_MOTION_DDOT":0},{"OBJECT_NAME":"KUIPER-00137","OBJECT_ID":"2025-228S","EPOCH":"2026-03-06T14:00:01.000224","MEAN_MOTION":14.81259652,"ECCENTRICITY":8.933e-5,"INCLINATION":51.9032,"RA_OF_ASC_NODE":359.3067,"ARG_OF_PERICENTER":112.8316,"MEAN_ANOMALY":149.6132,"EPHEMERIS_TYPE":0,"CLASSIFICATION_TYPE":"U","NORAD_CAT_ID":65963,"ELEMENT_SET_NO":999,"REV_AT_EPOCH":568,"BSTAR":-0.0014328464,"MEAN_MOTION_DOT":-0.00011479,"MEAN_MOTION_DDOT":0},{"OBJECT_NAME":"KUIPER-00138","OBJECT_ID":"2025-228T","EPOCH":"2026-03-06T02:25:53.205600","MEAN_MOTION":14.79919123,"ECCENTRICITY":8.739e-5,"INCLINATION":51.9015,"RA_OF_ASC_NODE":358.961,"ARG_OF_PERICENTER":94.4149,"MEAN_ANOMALY":265.6913,"EPHEMERIS_TYPE":0,"CLASSIFICATION_TYPE":"U","NORAD_CAT_ID":65964,"ELEMENT_SET_NO":999,"REV_AT_EPOCH":2294,"BSTAR":0.0004325019,"MEAN_MOTION_DOT":3.076e-5,"MEAN_MOTION_DDOT":0},{"OBJECT_NAME":"KUIPER-00140","OBJECT_ID":"2025-228U","EPOCH":"2026-03-06T12:05:30.734880","MEAN_MOTION":14.79919952,"ECCENTRICITY":4.139e-5,"INCLINATION":51.9023,"RA_OF_ASC_NODE":359.7613,"ARG_OF_PERICENTER":141.5674,"MEAN_ANOMALY":218.5318,"EPHEMERIS_TYPE":0,"CLASSIFICATION_TYPE":"U","NORAD_CAT_ID":65965,"ELEMENT_SET_NO":999,"REV_AT_EPOCH":2296,"BSTAR":0.00035432383,"MEAN_MOTION_DOT":2.48e-5,"MEAN_MOTION_DDOT":0},{"OBJECT_NAME":"KUIPER-00141","OBJECT_ID":"2025-228V","EPOCH":"2026-03-06T12:13:13.335168","MEAN_MOTION":14.80053388,"ECCENTRICITY":1.573e-5,"INCLINATION":51.9052,"RA_OF_ASC_NODE":354.7498,"ARG_OF_PERICENTER":327.0116,"MEAN_ANOMALY":33.0836,"EPHEMERIS_TYPE":0,"CLASSIFICATION_TYPE":"U","NORAD_CAT_ID":65966,"ELEMENT_SET_NO":999,"REV_AT_EPOCH":2303,"BSTAR":-0.0029299617,"MEAN_MOTION_DOT":-0.00022546,"MEAN_MOTION_DDOT":0}]
